NORAD_CAT_ID,OBJECT_NAME,OBJECT_TYPE,EPOCH,MEAN_MOTION,ECCENTRICITY,INCLINATION,RA_OF_ASC_NODE,ARG_OF_PERICENTER,MEAN_ANOMALY,BSTAR,MEAN_MOTION_DOT,MEAN_MOTION_DDOT,TLE_LINE0,TLE_LINE1,TLE_LINE2,SEMIMAJOR_AXIS,PERIOD,APOGEE,PERIGEE,DECAYED
54806.0,TBA - TO BE ASSIGNED,UNKNOWN,2022-12-27 18:00:00,15.78508921,0.0001740999999999,53.2176,256.962,26.4385,271.9608,-0.0076062,-0.01197838,0.0,0 TBA - TO BE ASSIGNED,1 54806U 22175BA  22361.75001157 -.01197838  00000-0 -76062-2 0  9992,2 54806  53.2176 256.9620 0001741  26.4385 271.9608 15.78508921  1303,6712.802,91.225,335.835,333.4980000000001,
54806.0,TBA - TO BE ASSIGNED,UNKNOWN,2022-12-27 22:00:00,15.78047077,0.0001188,53.2172,256.1325,34.8385,131.089,-0.0074929,-0.01159806,0.0,0 TBA - TO BE ASSIGNED,1 54806U 22175BA  22361.91667824 -.01159806  00000-0 -74929-2 0  9992,2 54806  53.2172 256.1325 0001188  34.8385 131.0890 15.78047077  1300,6714.111,91.252,336.774,335.1790000000001,
54806.0,STARLINK-5412,PAYLOAD,2022-12-28 14:00:01,15.76336646,0.0001476,53.2172,252.8127,30.1239,323.2507,-0.0083629999999999,-0.01194483,0.0,0 STARLINK-5412,1 54806U 22175BA  22362.58334491 -.01194483  00000-0 -83630-2 0  9996,2 54806  53.2172 252.8127 0001476  30.1239 323.2507 15.76336646  1301,6718.967,91.351,341.824,339.841,0.0
54806.0,STARLINK-5412,PAYLOAD,2022-12-28 22:00:00,15.75467347,0.0001438,53.2173,251.1578,44.2552,41.2834,-0.0086676,-0.01191474,0.0,0 STARLINK-5412,1 54806U 22175BA  22362.91667824 -.01191474  00000-0 -86676-2 0  9992,2 54806  53.2173 251.1578 0001438  44.2552  41.2834 15.75467347  1308,6721.439,91.401,344.27,342.337,0.0
54806.0,STARLINK-5412,PAYLOAD,2022-12-29 06:00:02,15.74596394,0.0001548,53.217,249.5042,31.6035,145.1215,-0.0089429,-0.01184062,0.0,0 STARLINK-5412,1 54806U 22175BA  22363.25002315 -.01184062  00000-0 -89429-2 0  9992,2 54806  53.2170 249.5042 0001548  31.6035 145.1215 15.74596394  1536,6723.917,91.452,346.8230000000001,344.741,0.0
54806.0,STARLINK-5412,PAYLOAD,2022-12-29 14:00:01,15.73606681,0.0001481,53.2173,247.8502,35.4152,231.3345,-0.0038686,-0.00520326,0.0,0 STARLINK-5412,1 54806U 22175BA  22363.58334491 -.00520326  00000-0 -38686-2 0  9996,2 54806  53.2173 247.8502 0001481  35.4152 231.3345 15.73606681  1586,6726.736,91.51,349.597,347.605,0.0
54806.0,STARLINK-5412,PAYLOAD,2022-12-29 22:00:00,15.72996973,0.0001381,53.2173,246.2017,52.5045,303.5332,0.0023642,0.00342077,0.0,0 STARLINK-5412,1 54806U 22175BA  22363.91667824  .00342077  00000-0  23642-2 0  9991,2 54806  53.2173 246.2017 0001381  52.5045 303.5332 15.72996973  1640,6728.474,91.545,351.26800000000014,349.41,0.0
54806.0,STARLINK-5412,PAYLOAD,2022-12-30 06:00:00,15.73221847,0.0002077,53.2151,244.556,47.2563,37.7911,-0.0003151,-0.00044655,0.0,0 STARLINK-5412,1 54806U 22175BA  22364.25001157 -.00044655  00000-0 -31510-3 0  9997,2 54806  53.2151 244.5560 0002077  47.2563  37.7911 15.73221847  1695,6727.833000000001,91.532,351.095,348.301,0.0
54806.0,STARLINK-5412,PAYLOAD,2022-12-30 14:00:01,15.73176284,0.0001742,53.2154,242.9046,50.6522,123.3277,0.00018842,0.00025878,0.0,0 STARLINK-5412,1 54806U 22175BA  22364.58334491  .00025878  00000-0  18842-3 0  9990,2 54806  53.2154 242.9046 0001742  50.6522 123.3277 15.73176284  1309,6727.9630000000025,91.535,351.0,348.656,0.0
54806.0,STARLINK-5412,PAYLOAD,2022-12-30 22:00:00,15.73195066,0.0001773,53.2156,241.2569,42.6962,220.2206,0.00031665,0.00044044,0.0,0 STARLINK-5412,1 54806U 22175BA  22364.91667824  .00044044  00000-0  31665-3 0  9990,2 54806  53.2156 241.2569 0001773  42.6962 220.2206 15.73195066  1797,6727.909000000002,91.533,350.967,348.581,0.0
54806.0,STARLINK-5412,PAYLOAD,2022-12-31 14:00:01,15.73118845,0.0001704,53.2156,237.956,47.8518,32.8566,0.00079939,0.00112694,0.0,0 STARLINK-5412,1 54806U 22175BA  22365.58334491  .00112694  00000-0  79939-3 0  9998,2 54806  53.2156 237.9560 0001704  47.8518  32.8566 15.73118845  1907,6728.127,91.538,351.13800000000015,348.845,0.0
54806.0,STARLINK-5412,PAYLOAD,2022-12-31 22:00:00,15.73196172,0.0001829,53.2154,236.3089,42.2603,127.3274,0.00036383,0.00050743,0.0,0 STARLINK-5412,1 54806U 22175BA  22365.91667824  .00050743  00000-0  36383-3 0  9996,2 54806  53.2154 236.3089 0001829  42.2603 127.3274 15.73196172  1305,6727.906,91.533,351.00199999999984,348.541,0.0
54806.0,STARLINK-5412,PAYLOAD,2023-01-01 06:00:00,15.7326084,0.0001717,53.2151,234.6591,38.2807,220.2366,-0.00063416,-0.00088921,0.0,0 STARLINK-5412,1 54806U 22175BA  23001.25001157 -.00088921  00000-0 -63416-3 0  9990,2 54806  53.2151 234.6591 0001717  38.2807 220.2366 15.73260840  2005,6727.722,91.53,350.742,348.432,0.0
54806.0,STARLINK-5412,PAYLOAD,2023-01-01 14:00:01,15.73219121,0.0001545,53.2155,233.0078,41.9307,305.5463,-0.00012236,-0.00017771,0.0,0 STARLINK-5412,1 54806U 22175BA  23001.58334491 -.00017771  00000-0 -12236-3 0  9995,2 54806  53.2155 233.0078 0001545  41.9307 305.5463 15.73219121  1300,6727.840999999999,91.532,350.745,348.666,0.0
54806.0,STARLINK-5412,PAYLOAD,2023-01-01 22:00:00,15.73187219,0.0001739,53.2155,231.3604,38.6463,37.783,-0.00030278,-0.00042876,0.0,0 STARLINK-5412,1 54806U 22175BA  23001.91667824 -.00042876  00000-0 -30278-3 0  9991,2 54806  53.2155 231.3604 0001739  38.6463  37.7830 15.73187219  2111,6727.932,91.534,350.967,348.62699999999984,0.0
54806.0,STARLINK-5412,PAYLOAD,2023-01-02 02:15:04,15.73187086,0.0003151,53.2157,230.4827,41.7239,318.4021,0.0003466,0.00048284,0.0,0 STARLINK-5412,1 54806U 22175BA  23002.09380534  .00048284  00000-0  34660-3 0  9997,2 54806  53.2157 230.4827 0003151  41.7239 318.4021 15.73187086  2142,6727.932,91.534,351.917,347.677,0.0
54806.0,STARLINK-5412,PAYLOAD,2023-01-02 11:23:57,15.73191287,0.0001567,53.2156,228.5974,35.5084,324.6040000000001,0.00041353,0.00057795,0.0,0 STARLINK-5412,1 54806U 22175BA  23002.47497289  .00057795  00000-0  41353-3 0  9999,2 54806  53.2156 228.5974 0001567  35.5084 324.6040 15.73191287  2205,6727.92,91.534,350.839,348.731,0.0
54806.0,STARLINK-5412,PAYLOAD,2023-01-02 14:26:55,15.7317609,0.0001805,53.2154,227.9688,56.9151,303.2042,7.4619e-05,9.854e-05,0.0,0 STARLINK-5412,1 54806U 22175BA  23002.60203385  .00009854  00000-0  74619-4 0  9991,2 54806  53.2154 227.9688 0001805  56.9151 303.2042 15.73176090  4386,6727.9630000000025,91.535,351.043,348.61400000000015,0.0
54806.0,STARLINK-5412,PAYLOAD,2023-01-02 19:01:22,15.73184025,0.0001858,53.2154,227.0255,31.9999,328.1134,0.00033605,0.00046774,0.0,0 STARLINK-5412,1 54806U 22175BA  23002.79262023  .00046774  00000-0  33605-3 0  9996,2 54806  53.2154 227.0255 0001858  31.9999 328.1134 15.73184025  2257,6727.941,91.534,351.056,348.556,0.0
54806.0,STARLINK-5412,PAYLOAD,2023-01-02 20:32:50,15.73226174,0.0002013,53.2154,226.7114,32.8272,327.2873,0.00074162,0.00104891,0.0,0 STARLINK-5412,1 54806U 22175BA  23002.85614576  .00104891  00000-0  74162-3 0  9995,2 54806  53.2154 226.7114 0002013  32.8272 327.2873 15.73226174  4428,6727.821,91.532,351.04,348.331,0.0
54806.0,STARLINK-5412,PAYLOAD,2023-01-03 05:41:44,15.73192582,0.0001781,53.2154,224.8248,33.6287,326.4846,0.00022594,0.00031197,0.0,0 STARLINK-5412,1 54806U 22175BA  23003.23732104  .00031197  00000-0  22594-3 0  9996,2 54806  53.2154 224.8248 0001781  33.6287 326.4846 15.73192582  2324,6727.916,91.534,350.98,348.583,0.0
54806.0,STARLINK-5412,PAYLOAD,2023-01-03 11:47:39,15.73199242,0.0001635,53.215,223.5679,35.0868,325.026,0.00038271,0.00053432,0.0,0 STARLINK-5412,1 54806U 22175BA  23003.49143395  .00053432  00000-0  38271-3 0  9997,2 54806  53.2150 223.5679 0001635  35.0868 325.0260 15.73199242  4522,6727.897,91.533,350.862,348.662,0.0
54806.0,STARLINK-5412,PAYLOAD,2023-01-03 17:53:35,15.73184265,0.0001844999999999,53.215,222.3101,35.6919,324.4224,0.00014221,0.00019371,0.0,0 STARLINK-5412,1 54806U 22175BA  23003.74554934  .00019371  00000-0  14221-3 0  9993,2 54806  53.2150 222.3101 0001845  35.6919 324.4224 15.73184265  2402,6727.94,91.534,351.046,348.564,0.0
54806.0,STARLINK-5412,PAYLOAD,2023-01-04 01:30:59,15.73206923,0.000183,53.2151,220.7379,40.2771,319.8385,0.00041758,0.00058412,0.0,0 STARLINK-5412,1 54806U 22175BA  23004.06319069  .00058412  00000-0  41758-3 0  9991,2 54806  53.2151 220.7379 0001830  40.2771 319.8385 15.73206923  2451,6727.875,91.533,350.972,348.509,0.0
54806.0,STARLINK-5412,PAYLOAD,2023-01-04 07:36:54,15.73241036,0.0001706999999999,53.2149,219.481,39.9883,320.1263,0.00052378,0.00073667,0.0,0 STARLINK-5412,1 54806U 22175BA  23004.31729839  .00073667  00000-0  52378-3 0  9998,2 54806  53.2149 219.4810 0001707  39.9883 320.1263 15.73241036  4653,6727.778,91.531,350.792,348.495,0.0
54806.0,STARLINK-5412,PAYLOAD,2023-01-04 22:51:40,15.732970300000002,0.0001568,53.2141,216.3365,42.8982,317.216,0.00040078,0.0005624,0.0,0 STARLINK-5412,1 54806U 22175BA  23004.95255513  .00056240  00000-0  40078-3 0  9993,2 54806  53.2141 216.3365 0001568  42.8982 317.2160 15.73297030  2593,6727.619000000002,91.528,350.538,348.42900000000014,0.0
54806.0,STARLINK-5412,PAYLOAD,2023-01-05 14:06:26,15.73292546,0.0001584,53.2136,213.1936,46.3483,313.7668,0.00029727,0.00041472,0.0,0 STARLINK-5412,1 54806U 22175BA  23005.58780852  .00041472  00000-0  29727-3 0  9991,2 54806  53.2136 213.1936 0001584  46.3483 313.7668 15.73292546  4851,6727.630999999999,91.528,350.56199999999984,348.431,0.0
54806.0,STARLINK-5412,PAYLOAD,2023-01-06 14:30:10,15.73127916,0.0001869,53.2139,208.1627,44.3,315.8169,-6.4724e-05,-9.666e-05,0.0,0 STARLINK-5412,1 54806U 22175BA  23006.60428587 -.00009666  00000-0 -64724-4 0  9997,2 54806  53.2139 208.1627 0001869  44.3000 315.8169 15.73127916  2859,6728.101,91.537,351.223,348.708,0.0
54806.0,STARLINK-5412,PAYLOAD,2023-01-06 22:07:35,15.73165053,0.0003312,53.2131,206.5899,62.9436,297.1922,0.00015256,0.00020814,0.0,0 STARLINK-5412,1 54806U 22175BA  23006.92193380  .00020814  00000-0  15256-3 0  9993,2 54806  53.2131 206.5899 0003312  62.9436 297.1922 15.73165053  5067,6727.995,91.535,352.088,347.631,0.0
